$$SOE
2459580.500000000, A.D. 2022-Jan-01 00:00:00.0000, -1.911347651039400E+08, 4.529394481115806E+08, -1.362655064071900E+07,
2459587.500000000, A.D. 2022-Jan-08 00:00:00.0000, -2.004845426594331E+08, 4.506343375757214E+08, -1.340383061502740E+07,
2459594.500000000, A.D. 2022-Jan-15 00:00:00.0000, -2.097533523238744E+08, 4.481470972127973E+08, -1.317569190551007E+07,
2459601.500000000, A.D. 2022-Jan-22 00:00:00.0000, -2.189382527707125E+08, 4.454804590476901E+08, -1.294227789832950E+07,
2459608.500000000, A.D. 2022-Jan-29 00:00:00.0000, -2.280363869402820E+08, 4.426371690327782E+08, -1.270373102991539E+07,
2459615.500000000, A.D. 2022-Feb-05 00:00:00.0000, -2.370449821990060E+08, 4.396199845651445E+08, -1.246019260362357E+07,
2459622.500000000, A.D. 2022-Feb-12 00:00:00.0000, -2.459613483449451E+08, 4.364316710509930E+08, -1.221180289502367E+07,
2459629.500000000, A.D. 2022-Feb-19 00:00:00.0000, -2.547828747903034E+08, 4.330749998832389E+08, -1.195870123086202E+07,
2459636.500000000, A.D. 2022-Feb-26 00:00:00.0000, -2.635070282352578E+08, 4.295527471070242E+08, -1.170102598079503E+07,
2459643.500000000, A.D. 2022-Mar-05 00:00:00.0000, -2.721313506753711E+08, 4.258676921523337E+08, -1.143891452702430E+07,
2459650.500000000, A.D. 2022-Mar-12 00:00:00.0000, -2.806534575221336E+08, 4.220226165633647E+08, -1.117250323760357E+07,
2459657.500000000, A.D. 2022-Mar-19 00:00:00.0000, -2.890710357668670E+08, 4.180203027479541E+08, -1.090192744770607E+07,
2459664.500000000, A.D. 2022-Mar-26 00:00:00.0000, -2.973818421667861E+08, 4.138635327364427E+08, -1.062732145144412E+07,
2459671.500000000, A.D. 2022-Apr-02 00:00:00.0000, -3.055837013865072E+08, 4.095550868895545E+08, -1.034881851506054E+07,
2459678.500000000, A.D. 2022-Apr-09 00:00:00.0000, -3.136745038239387E+08, 4.050977425556687E+08, -1.006655093605447E+07,
2459685.500000000, A.D. 2022-Apr-16 00:00:00.0000, -3.216522027644593E+08, 4.004942733272519E+08, -9.780650127529114E+06,
2459692.500000000, A.D. 2022-Apr-23 00:00:00.0000, -3.295148121336662E+08, 3.957474499770787E+08, -9.491246522799730E+06,
2459699.500000000, A.D. 2022-Apr-30 00:00:00.0000, -3.372604067196319E+08, 3.908600408263106E+08, -9.198469312268883E+06,
2459706.500000000, A.D. 2022-May-07 00:00:00.0000, -3.448871218010117E+08, 3.858348095668970E+08, -8.902446454569757E+06,
2459713.500000000, A.D. 2022-May-14 00:00:00.0000, -3.523931507918820E+08, 3.806745135714842E+08, -8.603304840854526E+06,
2459720.500000000, A.D. 2022-May-21 00:00:00.0000, -3.597767429359267E+08, 3.753819034466863E+08, -8.301170363928258E+06,
2459727.500000000, A.D. 2022-May-28 00:00:00.0000, -3.670362015290849E+08, 3.699597228687249E+08, -7.996167926637784E+06,
2459734.500000000, A.D. 2022-Jun-04 00:00:00.0000, -3.741698823932156E+08, 3.644107083857682E+08, -7.688421440342039E+06,
2459741.500000000, A.D. 2022-Jun-11 00:00:00.0000, -3.811761924558740E+08, 3.587375891862372E+08, -7.378053826376155E+06,
2459748.500000000, A.D. 2022-Jun-18 00:00:00.0000, -3.880535883973384E+08, 3.529430868437110E+08, -7.065187022803575E+06,
2459755.500000000, A.D. 2022-Jun-25 00:00:00.0000, -3.948005753352454E+08, 3.470299150028380E+08, -6.749942001688570E+06,
2459762.500000000, A.D. 2022-Jul-02 00:00:00.0000, -4.014157054124879E+08, 3.410007789382415E+08, -6.432438814361647E+06,
2459769.500000000, A.D. 2022-Jul-09 00:00:00.0000, -4.078975758977259E+08, 3.348583751611217E+08, -6.112796685788810E+06,
2459776.500000000, A.D. 2022-Jul-16 00:00:00.0000, -4.142448268535019E+08, 3.286053921540604E+08, -5.791134064264685E+06,
2459783.500000000, A.D. 2022-Jul-23 00:00:00.0000, -4.204561405707678E+08, 3.222445123099750E+08, -5.467568418257236E+06,
2459790.500000000, A.D. 2022-Jul-30 00:00:00.0000, -4.265302426855729E+08, 3.157784117202968E+08, -5.142216062002048E+06,
2459797.500000000, A.D. 2022-Aug-06 00:00:00.0000, -4.324659013774621E+08, 3.092097584583225E+08, -4.815192286552176E+06,
2459804.500000000, A.D. 2022-Aug-13 00:00:00.0000, -4.382619254723400E+08, 3.025412121092451E+08, -4.486611495296076E+06,
2459811.500000000, A.D. 2022-Aug-20 00:00:00.0000, -4.439171630199158E+08, 2.957754240420930E+08, -4.156587240959093E+06,
2459818.500000000, A.D. 2022-Aug-27 00:00:00.0000, -4.494305002774529E+08, 2.889150376962613E+08, -3.825232229515284E+06,
2459825.500000000, A.D. 2022-Sep-03 00:00:00.0000, -4.548008608510597E+08, 2.819626887710081E+08, -3.492658322547808E+06,
2459832.500000000, A.D. 2022-Sep-10 00:00:00.0000, -4.600272049033194E+08, 2.749210053405344E+08, -3.158976544159323E+06,
2459839.500000000, A.D. 2022-Sep-17 00:00:00.0000, -4.651085283965136E+08, 2.677926078914333E+08, -2.824297095130309E+06,
2459846.500000000, A.D. 2022-Sep-24 00:00:00.0000, -4.700438623096080E+08, 2.605801092298196E+08, -2.488729383936971E+06,
2459853.500000000, A.D. 2022-Oct-01 00:00:00.0000, -4.748322715879179E+08, 2.532861142337422E+08, -2.152382098464698E+06,
2459860.500000000, A.D. 2022-Oct-08 00:00:00.0000, -4.794728534176918E+08, 2.459132199708147E+08, -1.815363313218713E+06,
2459867.500000000, A.D. 2022-Oct-15 00:00:00.0000, -4.839647357578878E+08, 2.384640173785220E+08, -1.477780448808551E+06,
2459874.500000000, A.D. 2022-Oct-22 00:00:00.0000, -4.883070783120345E+08, 2.309410928227215E+08, -1.139740021592289E+06,
2459881.500000000, A.D. 2022-Oct-29 00:00:00.0000, -4.924990734426135E+08, 2.233470269413195E+08, -8.013476248711348E+05,
2459888.500000000, A.D. 2022-Nov-05 00:00:00.0000, -4.965399449270625E+08, 2.156843935137048E+08, -4.627081103337109E+05,
2459895.500000000, A.D. 2022-Nov-12 00:00:00.0000, -5.004289465195059E+08, 2.079557596217346E+08, -1.239256861605793E+05,
2459902.500000000, A.D. 2022-Nov-19 00:00:00.0000, -5.041653610377206E+08, 2.001636861474986E+08, 2.148960559778214E+05,
2459909.500000000, A.D. 2022-Nov-26 00:00:00.0000, -5.077484997127044E+08, 1.923107282101423E+08, 5.536541283678710E+05,
2459916.500000000, A.D. 2022-Dec-03 00:00:00.0000, -5.111777016340517E+08, 1.843994355295317E+08, 8.922461329295486E+05,
2459923.500000000, A.D. 2022-Dec-10 00:00:00.0000, -5.144523332449373E+08, 1.764323527345983E+08, 1.230570242472842E+06,
2459930.500000000, A.D. 2022-Dec-17 00:00:00.0000, -5.175717878614622E+08, 1.684120195905477E+08, 1.568525173248529E+06,
2459937.500000000, A.D. 2022-Dec-24 00:00:00.0000, -5.205354851065322E+08, 1.603409710783573E+08, 1.906010133427203E+06,
2459944.500000000, A.D. 2022-Dec-31 00:00:00.0000, -5.233428699001742E+08, 1.522217374333772E+08, 2.242924723560549E+06,
2459951.500000000, A.D. 2023-Jan-07 00:00:00.0000, -5.259934108830842E+08, 1.440568451046486E+08, 2.579168856498137E+06,
2459958.500000000, A.D. 2023-Jan-14 00:00:00.0000, -5.284866002403817E+08, 1.358488191308762E+08, 2.914642917837225E+06,
2459965.500000000, A.D. 2023-Jan-21 00:00:00.0000, -5.308219555710113E+08, 1.276001837601013E+08, 3.249247966792725E+06,
2459972.500000000, A.D. 2023-Jan-28 00:00:00.0000, -5.329990201345523E+08, 1.193134611178859E+08, 3.582885625192344E+06,
2459979.500000000, A.D. 2023-Feb-04 00:00:00.0000, -5.350173616825845E+08, 1.109911709511850E+08, 3.915457921351470E+06,
2459986.500000000, A.D. 2023-Feb-11 00:00:00.0000, -5.368765716695337E+08, 1.026358312532677E+08, 4.246867237773210E+06,
2459993.500000000, A.D. 2023-Feb-18 00:00:00.0000, -5.385762649066894E+08, 9.424995894623335E+07, 4.577016301267773E+06,
2460000.500000000, A.D. 2023-Feb-25 00:00:00.0000, -5.401160793965586E+08, 8.583607045951642E+07, 4.905808178302430E+06,
2460007.500000000, A.D. 2023-Mar-04 00:00:00.0000, -5.414956762448379E+08, 7.739668222328520E+07, 5.233146267928917E+06,
2460014.500000000, A.D. 2023-Mar-11 00:00:00.0000, -5.427147396207112E+08, 6.893431107715963E+07, 5.558934289910484E+06,
2460021.500000000, A.D. 2023-Mar-18 00:00:00.0000, -5.437729767177724E+08, 6.045147454455882E+07, 5.883076259903397E+06,
2460028.500000000, A.D. 2023-Mar-25 00:00:00.0000, -5.446701175117097E+08, 5.195069092515246E+07, 6.205476429413270E+06,
2460035.500000000, A.D. 2023-Apr-01 00:00:00.0000, -5.454059138897805E+08, 4.343447959838267E+07, 6.526039183965126E+06,
2460042.500000000, A.D. 2023-Apr-08 00:00:00.0000, -5.459801387672180E+08, 3.490536276239844E+07, 6.844669056244491E+06,
2460049.500000000, A.D. 2023-Apr-15 00:00:00.0000, -5.463925875281706E+08, 2.636586750146845E+07, 7.161270978306539E+06,
2460056.500000000, A.D. 2023-Apr-22 00:00:00.0000, -5.466430799834331E+08, 1.781852512981590E+07, 7.475750357586119E+06,
2460063.500000000, A.D. 2023-Apr-29 00:00:00.0000, -5.467314601102669E+08, 9.265870065418663E+06, 7.788012910077304E+06,
2460070.500000000, A.D. 2023-May-06 00:00:00.0000, -5.466575953337936E+08, 7.104400150494529E+05, 8.097964557751996E+06,
2460077.500000000, A.D. 2023-May-13 00:00:00.0000, -5.464213763265949E+08, -7.845223423264918E+06, 8.405511406685114E+06,
2460084.500000000, A.D. 2023-May-20 00:00:00.0000, -5.460227170924668E+08, -1.639857423140826E+07, 8.710559744098995E+06,
2460091.500000000, A.D. 2023-May-27 00:00:00.0000, -5.454615551403999E+08, -2.494706154535718E+07, 9.013016033981454E+06,
2460098.500000000, A.D. 2023-Jun-03 00:00:00.0000, -5.447378516905555E+08, -3.348812930686959E+07, 9.312786907890076E+06,
2460105.500000000, A.D. 2023-Jun-10 00:00:00.0000, -5.438515918882796E+08, -4.201921600737376E+07, 9.609779147363905E+06,
2460112.500000000, A.D. 2023-Jun-17 00:00:00.0000, -5.428027849376687E+08, -5.053775458510973E+07, 9.903899644578079E+06,
2460119.500000000, A.D. 2023-Jun-24 00:00:00.0000, -5.415914638356713E+08, -5.904117242049186E+07, 1.019505531617522E+07,
2460126.500000000, A.D. 2023-Jul-01 00:00:00.0000, -5.402176844543980E+08, -6.752689060178922E+07, 1.048315301452365E+07,
2460133.500000000, A.D. 2023-Jul-08 00:00:00.0000, -5.386815256460752E+08, -7.599232163927586E+07, 1.076809965695887E+07,
2460140.500000000, A.D. 2023-Jul-15 00:00:00.0000, -5.369830916482308E+08, -8.443486845814268E+07, 1.104980245871967E+07,
2460147.500000000, A.D. 2023-Jul-22 00:00:00.0000, -5.351225132689038E+08, -9.285192570462070E+07, 1.132816886200227E+07,
$$EOE